[{"OBJECT_NAME":"STARLINK-32474","OBJECT_ID":"2024-175T","EPOCH":"2026-03-09T14:50:34.092960","MEAN_MOTION":15.30183447,"ECCENTRICITY":0.0001228,"INCLINATION":53.1598,"RA_OF_ASC_NODE":194.2985,"ARG_OF_PERICENTER":77.7745,"MEAN_ANOMALY":282.3393,"EPHEMERIS_TYPE":0,"CLASSIFICATION_TYPE":"U","NORAD_CAT_ID":61260,"ELEMENT_SET_NO":999,"REV_AT_EPOCH":8144,"BSTAR":9.3562e-5,"MEAN_MOTION_DOT":2.411e-5,"MEAN_MOTION_DDOT":0},{"OBJECT_NAME":"THORAD AGENA D DEB","OBJECT_ID":"1969-082CP","EPOCH":"2026-03-09T22:51:31.947840","MEAN_MOTION":15.31252047,"ECCENTRICITY":0.00108961,"INCLINATION":69.8927,"RA_OF_ASC_NODE":265.8646,"ARG_OF_PERICENTER":335.0972,"MEAN_ANOMALY":24.9676,"EPHEMERIS_TYPE":0,"CLASSIFICATION_TYPE":"U","NORAD_CAT_ID":4133,"ELEMENT_SET_NO":999,"REV_AT_EPOCH":97550,"BSTAR":0.0018489552,"MEAN_MOTION_DOT":0.00056347,"MEAN_MOTION_DDOT":0}]
